[{"OBJECT_NAME":"HAWK-2A","OBJECT_ID":"2021-006CW","EPOCH":"2026-03-09T16:18:25.817472","MEAN_MOTION":15.33304498,"ECCENTRICITY":0.00064498,"INCLINATION":97.2459,"RA_OF_ASC_NODE":115.6184,"ARG_OF_PERICENTER":187.1463,"MEAN_ANOMALY":172.9689,"EPHEMERIS_TYPE":0,"CLASSIFICATION_TYPE":"U","NORAD_CAT_ID":47505,"ELEMENT_SET_NO":999,"REV_AT_EPOCH":28424,"BSTAR":0.0002543136,"MEAN_MOTION_DOT":8.113e-5,"MEAN_MOTION_DDOT":0},{"OBJECT_NAME":"STARLINK-35623","OBJECT_ID":"2025-237AA","EPOCH":"2026-03-09T05:04:24.841632","MEAN_MOTION":15.3019046,"ECCENTRICITY":0.0001058,"INCLINATION":53.1591,"RA_OF_ASC_NODE":42.1028,"ARG_OF_PERICENTER":90.3957,"MEAN_ANOMALY":269.7165,"EPHEMERIS_TYPE":0,"CLASSIFICATION_TYPE":"U","NORAD_CAT_ID":66138,"ELEMENT_SET_NO":999,"REV_AT_EPOCH":2253,"BSTAR":0.0013411717,"MEAN_MOTION_DOT":0.00039562,"MEAN_MOTION_DDOT":0}]
